start=new Date('2023-05-19T00:00:00.000Z').valueOf();
sats=[{"TIME_SYSTEM":"UTC","INCLINATION":"53.0544","ELEMENT_SET_NO":"999","OBJECT_NAME":"STARLINK-1869","SEMIMAJOR_AXIS":"6925.788","OBJECT_TYPE":"PAYLOAD","RCS_SIZE":"LARGE","MEAN_ANOMALY":"271.6666","OBJECT_ID":"2020-088AK","MEAN_MOTION_DOT":"0.00021461","REV_AT_EPOCH":"13705","EPOCH":"2023-05-18T16:36:19.866240","NORAD_CAT_ID":"47155","MEAN_MOTION":"15.06256599","FILE":"3911388","ECCENTRICITY":"0.00018470","COUNTRY_CODE":"US","DECAY_DATE":null,"PERIAPSIS":"546.374","REF_FRAME":"TEME","BSTAR":"0.00146090000000","CENTER_NAME":"EARTH","MEAN_MOTION_DDOT":"0.0000000000000","CLASSIFICATION_TYPE":"U","GP_ID":"232111141","MEAN_ELEMENT_THEORY":"SGP4","TLE_LINE1":"1 47155U 20088AK  23138.69189660  .00021461  00000-0  14609-2 0  9998","TLE_LINE2":"2 47155  53.0544 237.5001 0001847  88.4535 271.6666 15.06256599137054","EPHEMERIS_TYPE":"0","SITE":"AFETR","RA_OF_ASC_NODE":"237.5001","PERIOD":"95.601","ARG_OF_PERICENTER":"88.4535","APOAPSIS":"548.932","LAUNCH_DATE":"2020-11-25"},{"MEAN_MOTION_DDOT":"0.0000000000000","CLASSIFICATION_TYPE":"U","CENTER_NAME":"EARTH","REF_FRAME":"TEME","BSTAR":"0.00010425000000","PERIAPSIS":"546.453","DECAY_DATE":null,"COUNTRY_CODE":"US","ECCENTRICITY":"0.00011240","FILE":"3911388","MEAN_MOTION":"15.06394109","NORAD_CAT_ID":"47157","EPOCH":"2023-05-18T14:19:46.001280","LAUNCH_DATE":"2020-11-25","APOAPSIS":"548.010","ARG_OF_PERICENTER":"113.2768","PERIOD":"95.593","RA_OF_ASC_NODE":"227.9238","SITE":"AFETR","EPHEMERIS_TYPE":"0","TLE_LINE2":"2 47157  53.0541 227.9238 0001124 113.2768 246.8340 15.06394109137188","TLE_LINE1":"1 47157U 20088AM  23138.59706020  .00001272  00000-0  10425-3 0  9995","MEAN_ELEMENT_THEORY":"SGP4","GP_ID":"232112391","RCS_SIZE":"LARGE","OBJECT_TYPE":"PAYLOAD","SEMIMAJOR_AXIS":"6925.367","OBJECT_NAME":"STARLINK-1871","ELEMENT_SET_NO":"999","INCLINATION":"53.0541","TIME_SYSTEM":"UTC","REV_AT_EPOCH":"13718","MEAN_MOTION_DOT":"0.00001272","OBJECT_ID":"2020-088AM","MEAN_ANOMALY":"246.8340"},{"OBJECT_TYPE":"PAYLOAD","SEMIMAJOR_AXIS":"6925.364","OBJECT_NAME":"STARLINK-1873","RCS_SIZE":"LARGE","ELEMENT_SET_NO":"999","INCLINATION":"53.0536","TIME_SYSTEM":"UTC","REV_AT_EPOCH":"13732","MEAN_MOTION_DOT":"0.00001862","OBJECT_ID":"2020-088AN","MEAN_ANOMALY":"259.5212","PERIAPSIS":"546.579","DECAY_DATE":null,"MEAN_MOTION_DDOT":"0.0000000000000","CLASSIFICATION_TYPE":"U","CENTER_NAME":"EARTH","BSTAR":"0.00014387000000","REF_FRAME":"TEME","FILE":"3911388","MEAN_MOTION":"15.06394898","NORAD_CAT_ID":"47158","EPOCH":"2023-05-18T14:52:56.992512","ECCENTRICITY":"0.00009390","COUNTRY_CODE":"US","APOAPSIS":"547.879","ARG_OF_PERICENTER":"100.5882","LAUNCH_DATE":"2020-11-25","TLE_LINE2":"2 47158  53.0536 217.8194 0000939 100.5882 259.5212 15.06394898137321","TLE_LINE1":"1 47158U 20088AN  23138.62010408  .00001862  00000-0  14387-3 0  9994","MEAN_ELEMENT_THEORY":"SGP4","GP_ID":"232112142","PERIOD":"95.592","RA_OF_ASC_NODE":"217.8194","SITE":"AFETR","EPHEMERIS_TYPE":"0"},{"PERIAPSIS":"546.656","DECAY_DATE":null,"CENTER_NAME":"EARTH","REF_FRAME":"TEME","BSTAR":"0.00008592900000","MEAN_MOTION_DDOT":"0.0000000000000","CLASSIFICATION_TYPE":"U","NORAD_CAT_ID":"47161","EPOCH":"2023-05-18T22:02:52.108224","FILE":"3911388","MEAN_MOTION":"15.06398800","COUNTRY_CODE":"US","ECCENTRICITY":"0.00008110","APOAPSIS":"547.779","ARG_OF_PERICENTER":"105.0835","LAUNCH_DATE":"2020-11-25","MEAN_ELEMENT_THEORY":"SGP4","GP_ID":"232111391","TLE_LINE1":"1 47161U 20088AR  23138.91865866  .00000999  00000-0  85929-4 0  9997","TLE_LINE2":"2 47161  53.0552 216.4856 0000811 105.0835 255.0244 15.06398800137378","SITE":"AFETR","EPHEMERIS_TYPE":"0","PERIOD":"95.592","RA_OF_ASC_NODE":"216.4856","OBJECT_NAME":"STARLINK-1876","OBJECT_TYPE":"PAYLOAD","SEMIMAJOR_AXIS":"6925.352","RCS_SIZE":"LARGE","TIME_SYSTEM":"UTC","ELEMENT_SET_NO":"999","INCLINATION":"53.0552","REV_AT_EPOCH":"13737","MEAN_ANOMALY":"255.0244","OBJECT_ID":"2020-088AR","MEAN_MOTION_DOT":"0.00000999"},{"RA_OF_ASC_NODE":"227.3895","PERIOD":"95.593","EPHEMERIS_TYPE":"0","SITE":"AFETR","TLE_LINE2":"2 47162  53.0546 227.3895 0001305 124.9651 235.1461 15.06394270137200","TLE_LINE1":"1 47162U 20088AS  23138.71501383  .00000163  00000-0  29811-4 0  9998","GP_ID":"232111641","MEAN_ELEMENT_THEORY":"SGP4","LAUNCH_DATE":"2020-11-25","ARG_OF_PERICENTER":"124.9651","APOAPSIS":"548.135","ECCENTRICITY":"0.00013050","COUNTRY_CODE":"US","MEAN_MOTION":"15.06394270","FILE":"3911388","EPOCH":"2023-05-18T17:09:37.194912","NORAD_CAT_ID":"47162","CLASSIFICATION_TYPE":"U","MEAN_MOTION_DDOT":"0.0000000000000","BSTAR":"0.00002981100000","REF_FRAME":"TEME","CENTER_NAME":"EARTH","DECAY_DATE":null,"PERIAPSIS":"546.327","MEAN_MOTION_DOT":"0.00000163","MEAN_ANOMALY":"235.1461","OBJECT_ID":"2020-088AS","REV_AT_EPOCH":"13720","INCLINATION":"53.0546","ELEMENT_SET_NO":"999","TIME_SYSTEM":"UTC","RCS_SIZE":"LARGE","SEMIMAJOR_AXIS":"6925.366","OBJECT_TYPE":"PAYLOAD","OBJECT_NAME":"STARLINK-1877"},{"REV_AT_EPOCH":"13703","MEAN_MOTION_DOT":"0.00003560","MEAN_ANOMALY":"286.7640","OBJECT_ID":"2020-088AT","OBJECT_TYPE":"PAYLOAD","SEMIMAJOR_AXIS":"6925.368","OBJECT_NAME":"STARLINK-1878","RCS_SIZE":"LARGE","ELEMENT_SET_NO":"999","INCLINATION":"53.0535","TIME_SYSTEM":"UTC","APOAPSIS":"547.966","ARG_OF_PERICENTER":"73.3465","LAUNCH_DATE":"2020-11-25","TLE_LINE2":"2 47163  53.0535 238.1430 0001059  73.3465 286.7640 15.06393645137037","TLE_LINE1":"1 47163U 20088AT  23138.54822555  .00003560  00000-0  25780-3 0  9991","MEAN_ELEMENT_THEORY":"SGP4","GP_ID":"232081163","PERIOD":"95.593","RA_OF_ASC_NODE":"238.1430","SITE":"AFETR","EPHEMERIS_TYPE":"0","PERIAPSIS":"546.500","DECAY_DATE":null,"CLASSIFICATION_TYPE":"U","MEAN_MOTION_DDOT":"0.0000000000000","CENTER_NAME":"EARTH","REF_FRAME":"TEME","BSTAR":"0.00025780000000","FILE":"3911221","MEAN_MOTION":"15.06393645","NORAD_CAT_ID":"47163","EPOCH":"2023-05-18T13:09:26.687520","ECCENTRICITY":"0.00010590","COUNTRY_CODE":"US"},{"INCLINATION":"53.0533","ELEMENT_SET_NO":"999","TIME_SYSTEM":"UTC","RCS_SIZE":"LARGE","SEMIMAJOR_AXIS":"6925.363","OBJECT_TYPE":"PAYLOAD","OBJECT_NAME":"STARLINK-1879","MEAN_MOTION_DOT":"0.00000608","MEAN_ANOMALY":"251.9337","OBJECT_ID":"2020-088AU","REV_AT_EPOCH":"13745","ECCENTRICITY":"0.00012050","COUNTRY_CODE":"US","MEAN_MOTION":"15.06395420","FILE":"3911221","EPOCH":"2023-05-18T12:52:11.815968","NORAD_CAT_ID":"47164","CLASSIFICATION_TYPE":"U","MEAN_MOTION_DDOT":"0.0000000000000","BSTAR":"0.00005970200000","REF_FRAME":"TEME","CENTER_NAME":"EARTH","DECAY_DATE":null,"PERIAPSIS":"546.393","RA_OF_ASC_NODE":"208.2001","PERIOD":"95.592","EPHEMERIS_TYPE":"0","SITE":"AFETR","TLE_LINE1":"1 47164U 20088AU  23138.53624787  .00000608  00000-0  59702-4 0  9990","TLE_LINE2":"2 47164  53.0533 208.2001 0001205 108.1783 251.9337 15.06395420137457","GP_ID":"232081413","MEAN_ELEMENT_THEORY":"SGP4","LAUNCH_DATE":"2020-11-25","ARG_OF_PERICENTER":"108.1783","APOAPSIS":"548.062"},{"MEAN_MOTION":"15.06387488","FILE":"3911388","EPOCH":"2023-05-18T14:35:41.750304","NORAD_CAT_ID":"47165","ECCENTRICITY":"0.00007210","COUNTRY_CODE":"US","DECAY_DATE":null,"PERIAPSIS":"546.753","MEAN_MOTION_DDOT":"0.0000000000000","CLASSIFICATION_TYPE":"U","BSTAR":"0.00021796000000","REF_FRAME":"TEME","CENTER_NAME":"EARTH","TLE_LINE1":"1 47165U 20088AV  23138.60812211  .00002966  00000-0  21796-3 0  9990","TLE_LINE2":"2 47165  53.0549 227.8765 0000721  88.0024 272.1048 15.06387488137184","GP_ID":"232110892","MEAN_ELEMENT_THEORY":"SGP4","RA_OF_ASC_NODE":"227.8765","PERIOD":"95.593","EPHEMERIS_TYPE":"0","SITE":"AFETR","ARG_OF_PERICENTER":"88.0024","APOAPSIS":"547.751","LAUNCH_DATE":"2020-11-25","INCLINATION":"53.0549","ELEMENT_SET_NO":"999","TIME_SYSTEM":"UTC","SEMIMAJOR_AXIS":"6925.387","OBJECT_TYPE":"PAYLOAD","OBJECT_NAME":"STARLINK-1880","RCS_SIZE":"LARGE","MEAN_MOTION_DOT":"0.00002966","MEAN_ANOMALY":"272.1048","OBJECT_ID":"2020-088AV","REV_AT_EPOCH":"13718"},{"PERIAPSIS":"546.556","DECAY_DATE":null,"CLASSIFICATION_TYPE":"U","MEAN_MOTION_DDOT":"0.0000000000000","CENTER_NAME":"EARTH","BSTAR":"0.00113700000000","REF_FRAME":"TEME","FILE":"3911388","MEAN_MOTION":"15.06389033","NORAD_CAT_ID":"47167","EPOCH":"2023-05-18T15:50:00.213216","COUNTRY_CODE":"US","ECCENTRICITY":"0.00009980","APOAPSIS":"547.938","ARG_OF_PERICENTER":"95.5248","LAUNCH_DATE":"2020-11-25","TLE_LINE2":"2 47167  53.0534 227.6459 0000998  95.5248 264.5854 15.06389033137194","TLE_LINE1":"1 47167U 20088AX  23138.65972469  .00016690  00000-0  11370-2 0  9994","MEAN_ELEMENT_THEORY":"SGP4","GP_ID":"232111142","PERIOD":"95.593","RA_OF_ASC_NODE":"227.6459","SITE":"AFETR","EPHEMERIS_TYPE":"0","OBJECT_TYPE":"PAYLOAD","SEMIMAJOR_AXIS":"6925.382","OBJECT_NAME":"STARLINK-1884","RCS_SIZE":"LARGE","ELEMENT_SET_NO":"999","INCLINATION":"53.0534","TIME_SYSTEM":"UTC","REV_AT_EPOCH":"13719","MEAN_MOTION_DOT":"0.00016690","OBJECT_ID":"2020-088AX","MEAN_ANOMALY":"264.5854"},{"MEAN_MOTION_DOT":"0.00001021","OBJECT_ID":"2020-088BA","MEAN_ANOMALY":"264.0230","REV_AT_EPOCH":"13746","INCLINATION":"53.0541","ELEMENT_SET_NO":"999","TIME_SYSTEM":"UTC","RCS_SIZE":"LARGE","SEMIMAJOR_AXIS":"6925.373","OBJECT_TYPE":"PAYLOAD","OBJECT_NAME":"STARLINK-1887","RA_OF_ASC_NODE":"228.3023","PERIOD":"95.593","EPHEMERIS_TYPE":"0","SITE":"AFETR","TLE_LINE1":"1 47170U 20088BA  23138.51228797  .00001021  00000-0  87458-4 0  9995","TLE_LINE2":"2 47170  53.0541 228.3023 0001100  96.0884 264.0230 15.06391945137467","GP_ID":"232091770","MEAN_ELEMENT_THEORY":"SGP4","LAUNCH_DATE":"2020-11-25","ARG_OF_PERICENTER":"96.0884","APOAPSIS":"548.000","COUNTRY_CODE":"US","ECCENTRICITY":"0.00011000","MEAN_MOTION":"15.06391945","FILE":"3911354","EPOCH":"2023-05-18T12:17:41.680608","NORAD_CAT_ID":"47170","MEAN_MOTION_DDOT":"0.0000000000000","CLASSIFICATION_TYPE":"U","BSTAR":"0.00008745800000","REF_FRAME":"TEME","CENTER_NAME":"EARTH","DECAY_DATE":null,"PERIAPSIS":"546.476"}];
